CSS (TIANHE)            
1 48274U 21035A   26143.26969174  .00014569  00000+0  18018-3 0  9991
2 48274  41.4680 113.5197 0011094 265.7076  94.2495 15.59745917289279